STARLINK-30824          
1 58176U 23167B   26068.36077985  .00003121  00000+0  12601-3 0  9992
2 58176  43.0003 145.3645 0001030 257.0695 103.0041 15.26728143130939
COSMOS 2588             
1 64095U 25109A   26068.81179522  .00009169  00000+0  32611-3 0  9998
2 64095  72.9704  73.5401 0005019 308.6780  51.3966 15.29122656 44425
